[{"OBJECT_NAME":"YAOGAN-39 01A","OBJECT_ID":"2023-130A","EPOCH":"2026-03-07T01:49:05.647584","MEAN_MOTION":15.22847308,"ECCENTRICITY":0.00044592,"INCLINATION":35.005,"RA_OF_ASC_NODE":50.8898,"ARG_OF_PERICENTER":284.3505,"MEAN_ANOMALY":75.6714,"EPHEMERIS_TYPE":0,"CLASSIFICATION_TYPE":"U","NORAD_CAT_ID":57727,"ELEMENT_SET_NO":999,"REV_AT_EPOCH":14013,"BSTAR":0.00021092853,"MEAN_MOTION_DOT":5.026e-5,"MEAN_MOTION_DDOT":0},{"OBJECT_NAME":"FENGYUN 1C DEB","OBJECT_ID":"1999-025CUZ","EPOCH":"2026-03-07T03:33:19.659744","MEAN_MOTION":15.49361115,"ECCENTRICITY":0.0121693,"INCLINATION":97.0067,"RA_OF_ASC_NODE":319.8074,"ARG_OF_PERICENTER":141.5541,"MEAN_ANOMALY":219.4462,"EPHEMERIS_TYPE":0,"CLASSIFICATION_TYPE":"U","NORAD_CAT_ID":32203,"ELEMENT_SET_NO":999,"REV_AT_EPOCH":76401,"BSTAR":0.00044112138,"MEAN_MOTION_DOT":0.00032745,"MEAN_MOTION_DDOT":0}]
